start=new Date('2022-01-09T00:00:00.000Z').valueOf();
sats=[{"OBJECT_ID":"2020-038AT","ARG_OF_PERICENTER":"86.5011","PERIOD":"95.593","RCS_SIZE":"LARGE","REF_FRAME":"TEME","MEAN_ANOMALY":"273.6233","ELEMENT_SET_NO":"999","APOAPSIS":"548.793","EPHEMERIS_TYPE":"0","EPOCH":"2022-01-08T17:37:29.901504","REV_AT_EPOCH":"8750","MEAN_MOTION_DOT":"0.00000424","LAUNCH_DATE":"2020-06-13","ECCENTRICITY":"0.00022330","RA_OF_ASC_NODE":"184.4594","CLASSIFICATION_TYPE":"U","FILE":"3267514","OBJECT_NAME":"STARLINK-1463","PERIAPSIS":"545.700","NORAD_CAT_ID":"45771","TLE_LINE2":"2 45771  53.0539 184.4594 0002233  86.5011 273.6233 15.06389222 87501","CENTER_NAME":"EARTH","DECAY_DATE":null,"MEAN_ELEMENT_THEORY":"SGP4","OBJECT_TYPE":"PAYLOAD","MEAN_MOTION_DDOT":"0.0000000000000","INCLINATION":"53.0539","COUNTRY_CODE":"US","TLE_LINE1":"1 45771U 20038AT  22008.73437386  .00000424  00000-0  47363-4 0  9997","BSTAR":"0.00004736300000","TIME_SYSTEM":"UTC","GP_ID":"193489218","SITE":"AFETR","SEMIMAJOR_AXIS":"6925.382","MEAN_MOTION":"15.06389222"},{"RCS_SIZE":"LARGE","PERIOD":"95.593","REF_FRAME":"TEME","OBJECT_ID":"2020-038AU","ARG_OF_PERICENTER":"87.0546","ELEMENT_SET_NO":"999","EPHEMERIS_TYPE":"0","APOAPSIS":"548.858","EPOCH":"2022-01-08T20:32:39.574176","MEAN_ANOMALY":"273.0709","REV_AT_EPOCH":"8753","MEAN_MOTION_DOT":"0.00000658","LAUNCH_DATE":"2020-06-13","CLASSIFICATION_TYPE":"U","FILE":"3267514","OBJECT_NAME":"STARLINK-1470","ECCENTRICITY":"0.00023330","RA_OF_ASC_NODE":"183.9119","NORAD_CAT_ID":"45772","TLE_LINE2":"2 45772  53.0524 183.9119 0002333  87.0546 273.0709 15.06390565 87530","PERIAPSIS":"545.627","MEAN_ELEMENT_THEORY":"SGP4","OBJECT_TYPE":"PAYLOAD","MEAN_MOTION_DDOT":"0.0000000000000","INCLINATION":"53.0524","CENTER_NAME":"EARTH","DECAY_DATE":null,"TLE_LINE1":"1 45772U 20038AU  22008.85601359  .00000658  00000-0  63100-4 0  9990","BSTAR":"0.00006310000000","TIME_SYSTEM":"UTC","COUNTRY_CODE":"US","MEAN_MOTION":"15.06390565","SITE":"AFETR","GP_ID":"193487966","SEMIMAJOR_AXIS":"6925.377"},{"MEAN_MOTION":"15.06389441","SEMIMAJOR_AXIS":"6925.381","SITE":"AFETR","GP_ID":"193488216","TLE_LINE1":"1 45773U 20038AV  22008.78228951  .00000419  00000-0  47070-4 0  9999","BSTAR":"0.00004707000000","TIME_SYSTEM":"UTC","COUNTRY_CODE":"US","INCLINATION":"53.0538","MEAN_MOTION_DDOT":"0.0000000000000","MEAN_ELEMENT_THEORY":"SGP4","OBJECT_TYPE":"PAYLOAD","DECAY_DATE":null,"CENTER_NAME":"EARTH","NORAD_CAT_ID":"45773","TLE_LINE2":"2 45773  53.0538 184.2399 0001982  79.3100 280.8112 15.06389441 87523","PERIAPSIS":"545.873","CLASSIFICATION_TYPE":"U","FILE":"3267514","OBJECT_NAME":"STARLINK-1482","ECCENTRICITY":"0.00019820","RA_OF_ASC_NODE":"184.2399","MEAN_MOTION_DOT":"0.00000419","REV_AT_EPOCH":"8752","LAUNCH_DATE":"2020-06-13","EPOCH":"2022-01-08T18:46:29.813664","ELEMENT_SET_NO":"999","EPHEMERIS_TYPE":"0","APOAPSIS":"548.619","MEAN_ANOMALY":"280.8112","PERIOD":"95.593","RCS_SIZE":"LARGE","REF_FRAME":"TEME","ARG_OF_PERICENTER":"79.3100","OBJECT_ID":"2020-038AV"},{"PERIAPSIS":"545.835","NORAD_CAT_ID":"45774","TLE_LINE2":"2 45774  53.0522 184.0648 0002005  84.1883 275.9335 15.06396799 87527","CENTER_NAME":"EARTH","DECAY_DATE":null,"MEAN_ELEMENT_THEORY":"SGP4","OBJECT_TYPE":"PAYLOAD","MEAN_MOTION_DDOT":"0.0000000000000","INCLINATION":"53.0522","COUNTRY_CODE":"US","TLE_LINE1":"1 45774U 20038AW  22008.81914177  .00000692  00000-0  65389-4 0  9992","BSTAR":"0.00006538900000","TIME_SYSTEM":"UTC","GP_ID":"193488968","SITE":"AFETR","SEMIMAJOR_AXIS":"6925.358","MEAN_MOTION":"15.06396799","OBJECT_ID":"2020-038AW","ARG_OF_PERICENTER":"84.1883","PERIOD":"95.592","RCS_SIZE":"LARGE","REF_FRAME":"TEME","MEAN_ANOMALY":"275.9335","ELEMENT_SET_NO":"999","APOAPSIS":"548.612","EPHEMERIS_TYPE":"0","EPOCH":"2022-01-08T19:39:33.848928","REV_AT_EPOCH":"8752","MEAN_MOTION_DOT":"0.00000692","LAUNCH_DATE":"2020-06-13","ECCENTRICITY":"0.00020050","RA_OF_ASC_NODE":"184.0648","CLASSIFICATION_TYPE":"U","FILE":"3267514","OBJECT_NAME":"STARLINK-1485"},{"LAUNCH_DATE":"2020-06-13","REV_AT_EPOCH":"8752","MEAN_MOTION_DOT":"0.00000885","RA_OF_ASC_NODE":"184.3559","ECCENTRICITY":"0.00023020","OBJECT_NAME":"STARLINK-1488","FILE":"3267514","CLASSIFICATION_TYPE":"U","ARG_OF_PERICENTER":"79.7086","OBJECT_ID":"2020-038AX","REF_FRAME":"TEME","RCS_SIZE":"LARGE","PERIOD":"95.592","MEAN_ANOMALY":"280.4163","EPOCH":"2022-01-08T18:09:20.245248","APOAPSIS":"548.821","EPHEMERIS_TYPE":"0","ELEMENT_SET_NO":"999","COUNTRY_CODE":"US","TIME_SYSTEM":"UTC","TLE_LINE1":"1 45775U 20038AX  22008.75648432  .00000885  00000-0  78328-4 0  9995","BSTAR":"0.00007832800000","SEMIMAJOR_AXIS":"6925.362","SITE":"AFETR","GP_ID":"193489719","MEAN_MOTION":"15.06395714","PERIAPSIS":"545.632","TLE_LINE2":"2 45775  53.0535 184.3559 0002302  79.7086 280.4163 15.06395714 87527","NORAD_CAT_ID":"45775","DECAY_DATE":null,"CENTER_NAME":"EARTH","INCLINATION":"53.0535","MEAN_MOTION_DDOT":"0.0000000000000","MEAN_ELEMENT_THEORY":"SGP4","OBJECT_TYPE":"PAYLOAD"},{"RA_OF_ASC_NODE":"184.3172","ECCENTRICITY":"0.00020310","FILE":"3267514","OBJECT_NAME":"STARLINK-1489","CLASSIFICATION_TYPE":"U","LAUNCH_DATE":"2020-06-13","MEAN_MOTION_DOT":"0.00000778","REV_AT_EPOCH":"8752","MEAN_ANOMALY":"276.3827","EPHEMERIS_TYPE":"0","APOAPSIS":"548.623","ELEMENT_SET_NO":"999","EPOCH":"2022-01-08T18:19:57.017568","OBJECT_ID":"2020-038AY","ARG_OF_PERICENTER":"83.7393","REF_FRAME":"TEME","RCS_SIZE":"LARGE","PERIOD":"95.592","SITE":"AFETR","GP_ID":"193488467","SEMIMAJOR_AXIS":"6925.351","MEAN_MOTION":"15.06399110","COUNTRY_CODE":"US","TIME_SYSTEM":"UTC","BSTAR":"0.00007110500000","TLE_LINE1":"1 45776U 20038AY  22008.76385437  .00000778  00000-0  71105-4 0  9997","CENTER_NAME":"EARTH","DECAY_DATE":null,"MEAN_ELEMENT_THEORY":"SGP4","OBJECT_TYPE":"PAYLOAD","MEAN_MOTION_DDOT":"0.0000000000000","INCLINATION":"53.0525","PERIAPSIS":"545.810","TLE_LINE2":"2 45776  53.0525 184.3172 0002031  83.7393 276.3827 15.06399110 87528","NORAD_CAT_ID":"45776"},{"INCLINATION":"53.0539","MEAN_MOTION_DDOT":"0.0000000000000","MEAN_ELEMENT_THEORY":"SGP4","OBJECT_TYPE":"PAYLOAD","DECAY_DATE":null,"CENTER_NAME":"EARTH","NORAD_CAT_ID":"45777","TLE_LINE2":"2 45777  53.0539 184.3444 0002232  77.0989 283.0249 15.06396525 87526","PERIAPSIS":"545.678","MEAN_MOTION":"15.06396525","SEMIMAJOR_AXIS":"6925.359","SITE":"AFETR","GP_ID":"193488717","TLE_LINE1":"1 45777U 20038AZ  22008.76015503 -.00000987  00000-0 -47356-4 0  9997","BSTAR":"-0.00004735600000","TIME_SYSTEM":"UTC","COUNTRY_CODE":"US","EPOCH":"2022-01-08T18:14:37.394592","ELEMENT_SET_NO":"999","APOAPSIS":"548.770","EPHEMERIS_TYPE":"0","MEAN_ANOMALY":"283.0249","RCS_SIZE":"LARGE","PERIOD":"95.592","REF_FRAME":"TEME","ARG_OF_PERICENTER":"77.0989","OBJECT_ID":"2020-038AZ","CLASSIFICATION_TYPE":"U","FILE":"3267514","OBJECT_NAME":"STARLINK-1490","ECCENTRICITY":"0.00022320","RA_OF_ASC_NODE":"184.3444","MEAN_MOTION_DOT":"-0.00000987","REV_AT_EPOCH":"8752","LAUNCH_DATE":"2020-06-13"},{"EPHEMERIS_TYPE":"0","APOAPSIS":"548.555","ELEMENT_SET_NO":"999","EPOCH":"2022-01-08T20:59:10.126464","MEAN_ANOMALY":"276.0869","REF_FRAME":"TEME","PERIOD":"95.592","RCS_SIZE":"LARGE","OBJECT_ID":"2020-038BA","ARG_OF_PERICENTER":"84.0344","FILE":"3267514","OBJECT_NAME":"STARLINK-1491","CLASSIFICATION_TYPE":"U","RA_OF_ASC_NODE":"183.8260","ECCENTRICITY":"0.00019650","LAUNCH_DATE":"2020-06-13","MEAN_MOTION_DOT":"0.00000764","REV_AT_EPOCH":"8752","MEAN_ELEMENT_THEORY":"SGP4","OBJECT_TYPE":"PAYLOAD","MEAN_MOTION_DDOT":"0.0000000000000","INCLINATION":"53.0529","CENTER_NAME":"EARTH","DECAY_DATE":null,"TLE_LINE2":"2 45778  53.0529 183.8260 0001965  84.0344 276.0869 15.06406313 87528","NORAD_CAT_ID":"45778","PERIAPSIS":"545.833","MEAN_MOTION":"15.06406313","GP_ID":"193489469","SITE":"AFETR","SEMIMAJOR_AXIS":"6925.329","TIME_SYSTEM":"UTC","BSTAR":"0.00007017600000","TLE_LINE1":"1 45778U 20038BA  22008.87442276  .00000764  00000-0  70176-4 0  9998","COUNTRY_CODE":"US"},{"SEMIMAJOR_AXIS":"6925.363","SITE":"AFETR","GP_ID":"193489219","MEAN_MOTION":"15.06395411","COUNTRY_CODE":"US","BSTAR":"0.00006199000000","TLE_LINE1":"1 45779U 20038BB  22008.80439876  .00000642  00000-0  61990-4 0  9993","TIME_SYSTEM":"UTC","DECAY_DATE":null,"CENTER_NAME":"EARTH","MEAN_MOTION_DDOT":"0.0000000000000","INCLINATION":"53.0517","MEAN_ELEMENT_THEORY":"SGP4","OBJECT_TYPE":"PAYLOAD","PERIAPSIS":"545.942","NORAD_CAT_ID":"45779","TLE_LINE2":"2 45779  53.0517 184.1428 0001857  78.4030 281.7167 15.06395411 87514","ECCENTRICITY":"0.00018570","RA_OF_ASC_NODE":"184.1428","CLASSIFICATION_TYPE":"U","FILE":"3267514","OBJECT_NAME":"STARLINK-1492","REV_AT_EPOCH":"8751","MEAN_MOTION_DOT":"0.00000642","LAUNCH_DATE":"2020-06-13","MEAN_ANOMALY":"281.7167","EPOCH":"2022-01-08T19:18:20.052864","ELEMENT_SET_NO":"999","EPHEMERIS_TYPE":"0","APOAPSIS":"548.514","ARG_OF_PERICENTER":"78.4030","OBJECT_ID":"2020-038BB","RCS_SIZE":"LARGE","PERIOD":"95.592","REF_FRAME":"TEME"},{"MEAN_ANOMALY":"272.4658","EPHEMERIS_TYPE":"0","APOAPSIS":"548.588","ELEMENT_SET_NO":"999","EPOCH":"2022-01-08T19:34:16.075776","OBJECT_ID":"2020-038BC","ARG_OF_PERICENTER":"87.6557","REF_FRAME":"TEME","RCS_SIZE":"LARGE","PERIOD":"95.592","RA_OF_ASC_NODE":"184.0990","ECCENTRICITY":"0.00019780","FILE":"3267514","OBJECT_NAME":"STARLINK-1496","CLASSIFICATION_TYPE":"U","LAUNCH_DATE":"2020-06-13","REV_AT_EPOCH":"8751","MEAN_MOTION_DOT":"0.00000752","CENTER_NAME":"EARTH","DECAY_DATE":null,"MEAN_ELEMENT_THEORY":"SGP4","OBJECT_TYPE":"PAYLOAD","MEAN_MOTION_DDOT":"0.0000000000000","INCLINATION":"53.0538","PERIAPSIS":"545.848","TLE_LINE2":"2 45780  53.0538 184.0990 0001978  87.6557 272.4658 15.06398556 87517","NORAD_CAT_ID":"45780","SITE":"AFETR","GP_ID":"193487967","SEMIMAJOR_AXIS":"6925.353","MEAN_MOTION":"15.06398556","COUNTRY_CODE":"US","TIME_SYSTEM":"UTC","BSTAR":"0.00006938000000","TLE_LINE1":"1 45780U 20038BC  22008.81546384  .00000752  00000-0  69380-4 0  9992"}];
